{
    "links": {
        "self": "http://www.neowsapp.com/rest/v1/neo/3742339?api_key=iIulBulltgU6a56xZRHN4H3l9WmuAYTsLGpBGhQ2"
    },
    "id": "3742339",
    "neo_reference_id": "3742339",
    "name": "(2016 CD136)",
    "designation": "2016 CD136",
    "nasa_jpl_url": "http://ssd.jpl.nasa.gov/sbdb.cgi?sstr=3742339",
    "absolute_magnitude_h": 26.0,
    "estimated_diameter": {
        "kilometers": {
            "estimated_diameter_min": 0.0167708462,
            "estimated_diameter_max": 0.0375007522
        },
        "meters": {
            "estimated_diameter_min": 16.7708462163,
            "estimated_diameter_max": 37.5007521798
        },
        "miles": {
            "estimated_diameter_min": 0.0104209175,
            "estimated_diameter_max": 0.0233018799
        },
        "feet": {
            "estimated_diameter_min": 55.0224631002,
            "estimated_diameter_max": 123.0339677816
        }
    },
    "is_potentially_hazardous_asteroid": false,
    "close_approach_data": [
        {
            "close_approach_date": "2016-01-26",
            "close_approach_date_full": "2016-Jan-26 13:16",
            "epoch_date_close_approach": 1453814160000,
            "relative_velocity": {
                "kilometers_per_second": "11.7839405967",
                "kilometers_per_hour": "42422.1861481427",
                "miles_per_hour": "26359.4967207723"
            },
            "miss_distance": {
                "astronomical": "0.0271997902",
                "lunar": "10.5807183878",
                "kilometers": "4069030.678366874",
                "miles": "2528378.4210719012"
            },
            "orbiting_body": "Earth"
        }
    ],
    "orbital_data": {
        "orbit_id": "6",
        "orbit_determination_date": "2018-02-10 07:07:28",
        "first_observation_date": "2016-01-31",
        "last_observation_date": "2016-02-16",
        "data_arc_in_days": 16,
        "observations_used": 24,
        "orbit_uncertainty": "8",
        "minimum_orbit_intersection": ".00928149",
        "jupiter_tisserand_invariant": "3.179",
        "epoch_osculation": "2457424.5",
        "eccentricity": ".6297070568624082",
        "semi_major_axis": "2.466203152858117",
        "inclination": ".8181954393178158",
        "ascending_node_longitude": "187.6964972643293",
        "orbital_period": "1414.626208197942",
        "perihelion_distance": ".9132176238470402",
        "perihelion_argument": "258.3539938780152",
        "aphelion_distance": "4.019188681869194",
        "perihelion_time": "2457385.665190797690",
        "mean_anomaly": "9.88284483336489",
        "mean_motion": ".2544841866450326",
        "equinox": "J2000",
        "orbit_class": {
            "orbit_class_type": "APO",
            "orbit_class_description": "Near-Earth asteroid orbits which cross the Earth’s orbit similar to that of 1862 Apollo",
            "orbit_class_range": "a (semi-major axis) > 1.0 AU; q (perihelion) < 1.017 AU"
        }
    },
    "is_sentry_object": false
}